{
  "norad_id": 48800,
  "name": "ONEWEB-0215",
  "history": [
    {
      "epoch": "2026-03-28T18:54:42.802560Z",
      "apogee_km": 1203.6228639951987,
      "perigee_km": 1199.9112881653055,
      "latitude_deg": -6.07114080907589e-05,
      "longitude_deg": 165.34013418814183,
      "height_km": 1204.8339701788077,
      "semi_major_axis_km": 7579.904076080252,
      "eccentricity": 0.00024483,
      "inclination_deg": 87.8936,
      "raan_deg": 275.2219,
      "arg_perigee_deg": 95.4329,
      "mean_anomaly_deg": 264.708,
      "mean_motion_rev_day": 13.15549511
    }
  ]
}