{"fetched_at":"2026-03-29T16:36:15Z","count":15609,"tles":[{"name":"ONEWEB-0215","line1":"1 48800U 21045AK  26087.78799540 -.00000041  00000+0 -14379-3 0  9997","line2":"2 48800  87.8936 275.2219 0002448  95.4329 264.7080 13.15549511233720","category":"Other"}]}